STARLINK-36335          
1 68015U 26040A   26088.11988461  .00278586  00000+0  18041-2 0  9995
2 68015  97.2865  37.5179 0002825 104.2969 255.8610 15.75243304  4419
STARLINK-36923          
1 68016U 26040B   26087.86471411  .00161372  00000+0  10601-2 0  9997
2 68016  97.2860  37.2542 0001752  65.9812 294.1637 15.75241812  4376
STARLINK-36568          
1 68017U 26040C   26089.19821716  .00318947  00000+0  20981-2 0  9997
2 68017  97.2878  38.6554 0004643   0.8734 359.2539 15.74762528  4585
STARLINK-36930          
1 68018U 26040D   26088.00002314 -.00047720  00000+0 -32043-3 0  9995
2 68018  97.2860  37.3950 0001353  82.7705 320.1163 15.75219748  5533
STARLINK-36921          
1 68019U 26040E   26089.19592830 -.00744503  00000+0 -58251-2 0  9995
2 68019  97.2865  38.6613 0001273  73.3272 286.8132 15.73612984  4580
STARLINK-36928          
1 68020U 26040F   26089.19676839 -.00635800  00000+0 -47443-2 0  9999
2 68020  97.2856  38.6580 0000784 305.3637  54.7555 15.74419777  4581
STARLINK-36858          
1 68021U 26040G   26083.53835390  .00276588  00000+0  17848-2 0  9999
2 68021  97.2853  32.8877 0001694  78.8231 281.3225 15.75331784  3704
STARLINK-36916          
1 68022U 26040H   26089.16668981 -.01914500  00000+0 -24353-1 0  9999
2 68022  97.2854  38.6052 0001824  98.0696  35.8111 15.62520271  5726
STARLINK-36871          
1 68023U 26040J   26089.13083480  .00429213  00000+0  28044-2 0  9993
2 68023  97.2866  38.5927 0002565  52.0324 308.1172 15.74618586  4576
STARLINK-36891          
1 68024U 26040K   26088.11353028  .00315739  00000+0  20307-2 0  9990
2 68024  97.2861  37.5270 0003078 111.1562 249.0033 15.75298962  4418
STARLINK-36378          
1 68025U 26040L   26089.12866900  .00513154  00000+0  32145-2 0  9995
2 68025  97.2850  38.5984 0018502 193.7011 166.3755 15.75181155  4577
STARLINK-36884          
1 68026U 26040M   26088.87492225  .01791738  00000+0  10400-1 0  9998
2 68026  97.2860  38.3293 0010012 176.6070 183.5265 15.75507419  4531
STARLINK-36940          
1 68027U 26040N   26089.12009538  .00354225  00000+0  22698-2 0  9997
2 68027  97.2838  38.6145 0002035 115.1789 244.9688 15.75280149  4570
STARLINK-36253          
1 68028U 26040P   26089.16668981  .00120673  00000+0  36885-2 0  9996
2 68028  97.2858  37.9891 0002232  91.6146  39.1949 15.33377799  5822
STARLINK-36944          
1 68029U 26040Q   26088.17496005  .00378177  00000+0  24203-2 0  9998
2 68029  97.2863  37.5976 0001784  52.2871 307.8556 15.75242102  4427
STARLINK-36942          
1 68030U 26040R   26088.11070956  .00278157  00000+0  17986-2 0  9994
2 68030  97.2859  37.5337 0003468 121.0523 239.1083 15.75277690  4416
STARLINK-36913          
1 68031U 26040S   26089.16668981 -.01893258  00000+0 -29298-1 0  9998
2 68031  97.2852  38.5881 0001701  92.0138   1.0785 15.57371817  5728
